[{"OBJECT_NAME":"COSMOS 2251 DEB","OBJECT_ID":"1993-036DE","EPOCH":"2026-03-05T21:05:57.851520","MEAN_MOTION":15.28476017,"ECCENTRICITY":0.00296352,"INCLINATION":73.7711,"RA_OF_ASC_NODE":231.7029,"ARG_OF_PERICENTER":351.7813,"MEAN_ANOMALY":8.2898,"EPHEMERIS_TYPE":0,"CLASSIFICATION_TYPE":"U","NORAD_CAT_ID":33901,"ELEMENT_SET_NO":999,"REV_AT_EPOCH":90778,"BSTAR":0.0033083717,"MEAN_MOTION_DOT":0.00094044,"MEAN_MOTION_DDOT":0},{"OBJECT_NAME":"COSMOS 2251 DEB","OBJECT_ID":"1993-036DJ","EPOCH":"2026-03-06T06:24:57.907296","MEAN_MOTION":14.3573436,"ECCENTRICITY":0.0056851,"INCLINATION":73.8874,"RA_OF_ASC_NODE":162.0073,"ARG_OF_PERICENTER":30.7299,"MEAN_ANOMALY":0.4888,"EPHEMERIS_TYPE":0,"CLASSIFICATION_TYPE":"U","NORAD_CAT_ID":33905,"ELEMENT_SET_NO":999,"REV_AT_EPOCH":88886,"BSTAR":0.00070877307,"MEAN_MOTION_DOT":2.06e-5,"MEAN_MOTION_DDOT":0},{"OBJECT_NAME":"COSMOS 2251 DEB","OBJECT_ID":"1993-036DK","EPOCH":"2026-03-06T05:53:14.099712","MEAN_MOTION":14.58709844,"ECCENTRICITY":0.00335588,"INCLINATION":74.0303,"RA_OF_ASC_NODE":162.6031,"ARG_OF_PERICENTER":181.9549,"MEAN_ANOMALY":200.7128,"EPHEMERIS_TYPE":0,"CLASSIFICATION_TYPE":"U","NORAD_CAT_ID":33906,"ELEMENT_SET_NO":999,"REV_AT_EPOCH":89225,"BSTAR":0.0020694802,"MEAN_MOTION_DOT":9.716e-5,"MEAN_MOTION_DDOT":0},{"OBJECT_NAME":"COSMOS 2251 DEB","OBJECT_ID":"1993-036DL","EPOCH":"2026-03-05T22:44:24.659232","MEAN_MOTION":14.31713945,"ECCENTRICITY":0.01128656,"INCLINATION":74.068,"RA_OF_ASC_NODE":242.3642,"ARG_OF_PERICENTER":278.4886,"MEAN_ANOMALY":235.103,"EPHEMERIS_TYPE":0,"CLASSIFICATION_TYPE":"U","NORAD_CAT_ID":33907,"ELEMENT_SET_NO":999,"REV_AT_EPOCH":87770,"BSTAR":0.0017188661,"MEAN_MOTION_DOT":4.896e-5,"MEAN_MOTION_DDOT":0},{"OBJECT_NAME":"COSMOS 2251 DEB","OBJECT_ID":"1993-036DM","EPOCH":"2026-03-05T22:33:10.853280","MEAN_MOTION":14.08116567,"ECCENTRICITY":0.02151631,"INCLINATION":73.8378,"RA_OF_ASC_NODE":58.0279,"ARG_OF_PERICENTER":66.1871,"MEAN_ANOMALY":296.166,"EPHEMERIS_TYPE":0,"CLASSIFICATION_TYPE":"U","NORAD_CAT_ID":33908,"ELEMENT_SET_NO":999,"REV_AT_EPOCH":86644,"BSTAR":0.0018937554,"MEAN_MOTION_DOT":3.968e-5,"MEAN_MOTION_DDOT":0},{"OBJECT_NAME":"COSMOS 2251 DEB","OBJECT_ID":"1993-036DQ","EPOCH":"2026-03-05T20:58:38.132544","MEAN_MOTION":14.77378707,"ECCENTRICITY":0.00156944,"INCLINATION":74.0927,"RA_OF_ASC_NODE":359.6449,"ARG_OF_PERICENTER":267.2593,"MEAN_ANOMALY":148.9976,"EPHEMERIS_TYPE":0,"CLASSIFICATION_TYPE":"U","NORAD_CAT_ID":33911,"ELEMENT_SET_NO":999,"REV_AT_EPOCH":89871,"BSTAR":0.0022149967,"MEAN_MOTION_DOT":0.00015789,"MEAN_MOTION_DDOT":0},{"OBJECT_NAME":"COSMOS 2251 DEB","OBJECT_ID":"1993-036DR","EPOCH":"2026-03-06T07:27:27.626688","MEAN_MOTION":14.52525491,"ECCENTRICITY":0.00083138,"INCLINATION":74.0358,"RA_OF_ASC_NODE":32.2129,"ARG_OF_PERICENTER":97.0559,"MEAN_ANOMALY":27.2507,"EPHEMERIS_TYPE":0,"CLASSIFICATION_TYPE":"U","NORAD_CAT_ID":33912,"ELEMENT_SET_NO":999,"REV_AT_EPOCH":89646,"BSTAR":0.0010797504,"MEAN_MOTION_DOT":4.388e-5,"MEAN_MOTION_DDOT":0},{"OBJECT_NAME":"COSMOS 2251 DEB","OBJECT_ID":"1993-036DS","EPOCH":"2026-03-06T06:53:35.909088","MEAN_MOTION":14.48905365,"ECCENTRICITY":0.0045397,"INCLINATION":74.0359,"RA_OF_ASC_NODE":27.057,"ARG_OF_PERICENTER":110.6437,"MEAN_ANOMALY":0.6674,"EPHEMERIS_TYPE":0,"CLASSIFICATION_TYPE":"U","NORAD_CAT_ID":33913,"ELEMENT_SET_NO":999,"REV_AT_EPOCH":89667,"BSTAR":0.00077107653,"MEAN_MOTION_DOT":2.93e-5,"MEAN_MOTION_DDOT":0},{"OBJECT_NAME":"COSMOS 2251 DEB","OBJECT_ID":"1993-036DT","EPOCH":"2026-03-05T22:20:12.148224","MEAN_MOTION":13.72109885,"ECCENTRICITY":0.03035462,"INCLINATION":74.088,"RA_OF_ASC_NODE":237.9751,"ARG_OF_PERICENTER":321.5347,"MEAN_ANOMALY":159.7169,"EPHEMERIS_TYPE":0,"CLASSIFICATION_TYPE":"U","NORAD_CAT_ID":33914,"ELEMENT_SET_NO":999,"REV_AT_EPOCH":85222,"BSTAR":0.0003829277,"MEAN_MOTION_DOT":4.6e-6,"MEAN_MOTION_DDOT":0},{"OBJECT_NAME":"COSMOS 2251 DEB","OBJECT_ID":"1993-036DU","EPOCH":"2026-03-05T22:34:53.840352","MEAN_MOTION":14.35354202,"ECCENTRICITY":0.01062086,"INCLINATION":74.0404,"RA_OF_ASC_NODE":241.5895,"ARG_OF_PERICENTER":313.1356,"MEAN_ANOMALY":165.3741,"EPHEMERIS_TYPE":0,"CLASSIFICATION_TYPE":"U","NORAD_CAT_ID":33915,"ELEMENT_SET_NO":999,"REV_AT_EPOCH":88951,"BSTAR":0.00041494926,"MEAN_MOTION_DOT":1.241e-5,"MEAN_MOTION_DDOT":0},{"OBJECT_NAME":"COSMOS 2251 DEB","OBJECT_ID":"1993-036DV","EPOCH":"2026-03-06T00:22:40.671264","MEAN_MOTION":13.68694757,"ECCENTRICITY":0.03238701,"INCLINATION":74.0485,"RA_OF_ASC_NODE":263.7591,"ARG_OF_PERICENTER":57.1469,"MEAN_ANOMALY":93.1411,"EPHEMERIS_TYPE":0,"CLASSIFICATION_TYPE":"U","NORAD_CAT_ID":33916,"ELEMENT_SET_NO":999,"REV_AT_EPOCH":85030,"BSTAR":0.00039480137,"MEAN_MOTION_DOT":4.69e-6,"MEAN_MOTION_DDOT":0},{"OBJECT_NAME":"COSMOS 2251 DEB","OBJECT_ID":"1993-036DW","EPOCH":"2026-03-06T05:04:15.150144","MEAN_MOTION":13.69652724,"ECCENTRICITY":0.03296146,"INCLINATION":74.11,"RA_OF_ASC_NODE":345.5044,"ARG_OF_PERICENTER":66.9591,"MEAN_ANOMALY":296.5923,"EPHEMERIS_TYPE":0,"CLASSIFICATION_TYPE":"U","NORAD_CAT_ID":33917,"ELEMENT_SET_NO":999,"REV_AT_EPOCH":84876,"BSTAR":0.0016404475,"MEAN_MOTION_DOT":2.08e-5,"MEAN_MOTION_DDOT":0},{"OBJECT_NAME":"COSMOS 2251 DEB","OBJECT_ID":"1993-036DZ","EPOCH":"2026-03-06T06:50:58.310304","MEAN_MOTION":14.59849134,"ECCENTRICITY":0.00314457,"INCLINATION":74.0602,"RA_OF_ASC_NODE":139.4855,"ARG_OF_PERICENTER":129.4606,"MEAN_ANOMALY":230.935,"EPHEMERIS_TYPE":0,"CLASSIFICATION_TYPE":"U","NORAD_CAT_ID":33920,"ELEMENT_SET_NO":999,"REV_AT_EPOCH":89333,"BSTAR":0.0014449737,"MEAN_MOTION_DOT":6.937e-5,"MEAN_MOTION_DDOT":0},{"OBJECT_NAME":"COSMOS 2251 DEB","OBJECT_ID":"1993-036EB","EPOCH":"2026-03-06T04:48:46.508256","MEAN_MOTION":14.49845779,"ECCENTRICITY":0.00208541,"INCLINATION":74.051,"RA_OF_ASC_NODE":351.2282,"ARG_OF_PERICENTER":81.5005,"MEAN_ANOMALY":43.5377,"EPHEMERIS_TYPE":0,"CLASSIFICATION_TYPE":"U","NORAD_CAT_ID":33922,"ELEMENT_SET_NO":999,"REV_AT_EPOCH":89787,"BSTAR":0.00058545612,"MEAN_MOTION_DOT":2.239e-5,"MEAN_MOTION_DDOT":0},{"OBJECT_NAME":"COSMOS 2251 DEB","OBJECT_ID":"1993-036ED","EPOCH":"2026-03-06T06:06:25.178112","MEAN_MOTION":13.50375789,"ECCENTRICITY":0.04016981,"INCLINATION":73.9128,"RA_OF_ASC_NODE":135.9537,"ARG_OF_PERICENTER":156.4771,"MEAN_ANOMALY":205.5294,"EPHEMERIS_TYPE":0,"CLASSIFICATION_TYPE":"U","NORAD_CAT_ID":33924,"ELEMENT_SET_NO":999,"REV_AT_EPOCH":83866,"BSTAR":0.00074493208,"MEAN_MOTION_DOT":7.68e-6,"MEAN_MOTION_DDOT":0},{"OBJECT_NAME":"COSMOS 2251 DEB","OBJECT_ID":"1993-036EH","EPOCH":"2026-03-05T22:00:07.841088","MEAN_MOTION":14.47609539,"ECCENTRICITY":0.00607248,"INCLINATION":73.9225,"RA_OF_ASC_NODE":255.9324,"ARG_OF_PERICENTER":173.9831,"MEAN_ANOMALY":186.2072,"EPHEMERIS_TYPE":0,"CLASSIFICATION_TYPE":"U","NORAD_CAT_ID":33928,"ELEMENT_SET_NO":999,"REV_AT_EPOCH":89848,"BSTAR":0.00032226543,"MEAN_MOTION_DOT":1.186e-5,"MEAN_MOTION_DDOT":0}]
