COSMOS 2251 DEB         
1 33901U 93036DE  26064.87914180  .00094044  00000+0  33084-2 0  9993
2 33901  73.7711 231.7029 0029635 351.7813   8.2898 15.28476017907788
COSMOS 2251 DEB         
1 33905U 93036DJ  26065.26733689  .00002060  00000+0  70877-3 0  9993
2 33905  73.8874 162.0073 0056851  30.7299   0.4888 14.35734360888865
COSMOS 2251 DEB         
1 33906U 93036DK  26065.24530208  .00009716  00000+0  20695-2 0  9991
2 33906  74.0303 162.6031 0033558 181.9549 200.7128 14.58709844892256
COSMOS 2251 DEB         
1 33907U 93036DL  26064.94750763  .00004896  00000+0  17189-2 0  9996
2 33907  74.0680 242.3642 0112865 278.4886 235.1030 14.31713945877709
COSMOS 2251 DEB         
1 33908U 93036DM  26064.93970895  .00003968  00000+0  18938-2 0  9998
2 33908  73.8378  58.0279 0215163  66.1871 296.1660 14.08116567866446
COSMOS 2251 DEB         
1 33911U 93036DQ  26064.87405246  .00015789  00000+0  22150-2 0  9993
2 33911  74.0927 359.6449 0015694 267.2593 148.9976 14.77378707898715
COSMOS 2251 DEB         
1 33912U 93036DR  26065.31073642  .00004388  00000+0  10798-2 0  9993
2 33912  74.0358  32.2129 0008313  97.0559  27.2507 14.52525491896460
COSMOS 2251 DEB         
1 33913U 93036DS  26065.28722117  .00002930  00000+0  77108-3 0  9998
2 33913  74.0359  27.0570 0045397 110.6437   0.6674 14.48905365896674
COSMOS 2251 DEB         
1 33914U 93036DT  26064.93069616  .00000460  00000+0  38293-3 0  9996
2 33914  74.0880 237.9751 0303546 321.5347 159.7169 13.72109885852220
COSMOS 2251 DEB         
1 33915U 93036DU  26064.94090093  .00001241  00000+0  41495-3 0  9997
2 33915  74.0404 241.5895 0106208 313.1356 165.3741 14.35354202889512
COSMOS 2251 DEB         
1 33916U 93036DV  26065.01574851  .00000469  00000+0  39480-3 0  9998
2 33916  74.0485 263.7591 0323870  57.1469  93.1411 13.68694757850301
COSMOS 2251 DEB         
1 33917U 93036DW  26065.21128646  .00002080  00000+0  16404-2 0  9999
2 33917  74.1100 345.5044 0329614  66.9591 296.5923 13.69652724848768
COSMOS 2251 DEB         
1 33920U 93036DZ  26065.28539711  .00006937  00000+0  14450-2 0  9993
2 33920  74.0602 139.4855 0031445 129.4606 230.9350 14.59849134893334
COSMOS 2251 DEB         
1 33922U 93036EB  26065.20053829  .00002239  00000+0  58546-3 0  9994
2 33922  74.0510 351.2282 0020854  81.5005  43.5377 14.49845779897875
COSMOS 2251 DEB         
1 33924U 93036ED  26065.25445808  .00000768  00000+0  74493-3 0  9997
2 33924  73.9128 135.9537 0401698 156.4771 205.5294 13.50375789838661
COSMOS 2251 DEB         
1 33928U 93036EH  26064.91675742  .00001186  00000+0  32227-3 0  9999
2 33928  73.9225 255.9324 0060724 173.9831 186.2072 14.47609539898487
